IRIDIUM 36              
1 24967U 97056C   24234.72279717  .00001283  00000+0  42688-3 0  9996
2 24967  86.3959 298.7822 0002037  93.6147 266.5284 14.36974545409206
IRIDIUM 39              
1 25042U 97069D   24234.79286115  .00002555  00000+0  67881-3 0  9997
2 25042  86.3971 339.4759 0016854 220.6726 139.3220 14.48216564405615
IRIDIUM 38              
1 25043U 97069E   24235.05785790  .00001695  00000+0  56076-3 0  9999
2 25043  86.4007 358.9842 0002768  50.3338 309.8103 14.37440220403238
IRIDIUM 42              
1 25077U 97077A   24234.84054138  .00001537  00000+0  52567-3 0  9992
2 25077  86.4006   4.8714 0002378  76.5171 283.6291 14.35722120398231
IRIDIUM 44              
1 25078U 97077B   24234.83428467  .00001467  00000+0  46387-3 0  9997
2 25078  86.4007 347.6132 0000699  36.2821 323.8425 14.39570682400625
IRIDIUM 45              
1 25104U 97082A   24234.86669068  .00036105  00000+0  18871-2 0  9993
2 25104  86.3750 191.3721 0151306   1.6087 358.5601 15.06262975406736
IRIDIUM 24              
1 25105U 97082B   24234.84118234  .00001802  00000+0  55034-3 0  9995
2 25105  86.3934 207.0820 0011257 359.0526   1.0651 14.41366948400084
IRIDIUM 51              
1 25262U 98018A   24235.18863461  .00038861  00000+0  16557-2 0  9997
2 25262  86.3969 200.8145 0132009 299.4711  59.3412 15.15132893401612
